{"type": "FeatureCollection", "features": [ {"type": "Feature", "properties": {"norad_id": 37089, "name": "COSMOS 2251 DEB", "group": "cosmos-2251-debris", "lat": 74.0259997675638, "lon": -134.34770887155642, "alt_km": 785.397817035635, "timestamp": "2025-12-18T07:01:54.987167+00:00", "meta": {"OBJECT_NAME": "COSMOS 2251 DEB", "OBJECT_ID": "1993-036BFK", "EPOCH": "2025-12-15T02:35:52.652256", "MEAN_MOTION": 14.5300115, "ECCENTRICITY": 0.01350597, "INCLINATION": 74.0363, "RA_OF_ASC_NODE": 141.2743, "ARG_OF_PERICENTER": 240.987, "MEAN_ANOMALY": 117.7703, "EPHEMERIS_TYPE": 0, "CLASSIFICATION_TYPE": "U", "NORAD_CAT_ID": 37089, "ELEMENT_SET_NO": 999, "REV_AT_EPOCH": 66144, "BSTAR": 0.0016025339, "MEAN_MOTION_DOT": 7.435e-05, "MEAN_MOTION_DDOT": 0}, "tle": {"line1": "1 37089U 93036BFK 25349.10824829  .00007435  00000+0  16025-2 0  9999", "line2": "2 37089  74.0363 141.2743 0135059 240.9870 117.7703 14.53001150661444"}}, "geometry": {"type": "Point", "coordinates": [-134.34770887155642, 74.0259997675638]}}, {"type": "Feature", "properties": {"norad_id": 37094, "name": "COSMOS 2251 DEB", "group": "cosmos-2251-debris", "lat": -73.67218328694473, "lon": 34.472022932924226, "alt_km": 829.4418585358962, "timestamp": "2025-12-18T07:01:54.987177+00:00", "meta": {"OBJECT_NAME": "COSMOS 2251 DEB", "OBJECT_ID": "1993-036BFQ", "EPOCH": "2025-12-10T15:45:11.030688", "MEAN_MOTION": 14.37808892, "ECCENTRICITY": 0.0084108, "INCLINATION": 74.1091, "RA_OF_ASC_NODE": 124.9809, "ARG_OF_PERICENTER": 91.4784, "MEAN_ANOMALY": 269.6007, "EPHEMERIS_TYPE": 0, "CLASSIFICATION_TYPE": "U", "NORAD_CAT_ID": 37094, "ELEMENT_SET_NO": 999, "REV_AT_EPOCH": 84476, "BSTAR": 0.0015212, "MEAN_MOTION_DOT": 4.753e-05, "MEAN_MOTION_DDOT": 0}, "tle": {"line1": "1 37094U 93036BFQ 25344.65637767  .00004753  00000+0  15212-2 0  9990", "line2": "2 37094  74.1091 124.9809 0084108  91.4784 269.6007 14.37808892844763"}}, "geometry": {"type": "Point", "coordinates": [34.472022932924226, -73.67218328694473]}}, {"type": "Feature", "properties": {"norad_id": 37095, "name": "COSMOS 2251 DEB", "group": "cosmos-2251-debris", "lat": -52.062584293933725, "lon": 21.955541207789796, "alt_km": 747.0969285419824, "timestamp": "2025-12-18T07:01:54.987187+00:00", "meta": {"OBJECT_NAME": "COSMOS 2251 DEB", "OBJECT_ID": "1993-036BFR", "EPOCH": "2025-12-14T06:06:08.543520", "MEAN_MOTION": 14.03409585, "ECCENTRICITY": 0.019488, "INCLINATION": 73.8479, "RA_OF_ASC_NODE": 187.2421, "ARG_OF_PERICENTER": 244.7942, "MEAN_ANOMALY": 113.2877, "EPHEMERIS_TYPE": 0, "CLASSIFICATION_TYPE": "U", "NORAD_CAT_ID": 37095, "ELEMENT_SET_NO": 999, "REV_AT_EPOCH": 62657, "BSTAR": 0.0017117328, "MEAN_MOTION_DOT": 3.142e-05, "MEAN_MOTION_DDOT": 0}, "tle": {"line1": "1 37095U 93036BFR 25348.25426555  .00003142  00000+0  17117-2 0  9999", "line2": "2 37095  73.8479 187.2421 0194880 244.7942 113.2877 14.03409585626575"}}, "geometry": {"type": "Point", "coordinates": [21.955541207789796, -52.062584293933725]}}, {"type": "Feature", "properties": {"norad_id": 37108, "name": "COSMOS 2251 DEB", "group": "cosmos-2251-debris", "lat": -42.69494861633181, "lon": 54.979930098406875, "alt_km": 824.1298858727032, "timestamp": "2025-12-18T07:01:54.987197+00:00", "meta": {"OBJECT_NAME": "COSMOS 2251 DEB", "OBJECT_ID": "1993-036BGE", "EPOCH": "2025-12-16T13:35:53.434752", "MEAN_MOTION": 14.41333777, "ECCENTRICITY": 0.00909531, "INCLINATION": 74.0447, "RA_OF_ASC_NODE": 73.4787, "ARG_OF_PERICENTER": 149.2349, "MEAN_ANOMALY": 211.4184, "EPHEMERIS_TYPE": 0, "CLASSIFICATION_TYPE": "U", "NORAD_CAT_ID": 37108, "ELEMENT_SET_NO": 999, "REV_AT_EPOCH": 85562, "BSTAR": 0.00087756786, "MEAN_MOTION_DOT": 2.958e-05, "MEAN_MOTION_DDOT": 0}, "tle": {"line1": "1 37108U 93036BGE 25350.56659068  .00002958  00000+0  87757-3 0  9990", "line2": "2 37108  74.0447  73.4787 0090953 149.2349 211.4184 14.41333777855628"}}, "geometry": {"type": "Point", "coordinates": [54.979930098406875, -42.69494861633181]}}, {"type": "Feature", "properties": {"norad_id": 37126, "name": "COSMOS 2251 DEB", "group": "cosmos-2251-debris", "lat": 50.3154835410968, "lon": 143.35910492642253, "alt_km": 651.0126440485747, "timestamp": "2025-12-18T07:01:54.987207+00:00", "meta": {"OBJECT_NAME": "COSMOS 2251 DEB", "OBJECT_ID": "1993-036BGY", "EPOCH": "2025-12-15T06:43:54.416352", "MEAN_MOTION": 14.73082746, "ECCENTRICITY": 0.01230943, "INCLINATION": 73.9533, "RA_OF_ASC_NODE": 349.5533, "ARG_OF_PERICENTER": 227.1861, "MEAN_ANOMALY": 131.8915, "EPHEMERIS_TYPE": 0, "CLASSIFICATION_TYPE": "U", "NORAD_CAT_ID": 37126, "ELEMENT_SET_NO": 999, "REV_AT_EPOCH": 8136, "BSTAR": 0.00020663432, "MEAN_MOTION_DOT": 1.461e-05, "MEAN_MOTION_DDOT": 0}, "tle": {"line1": "1 37126U 93036BGY 25349.28049093  .00001461  00000+0  20663-3 0  9999", "line2": "2 37126  73.9533 349.5533 0123094 227.1861 131.8915 14.73082746 81367"}}, "geometry": {"type": "Point", "coordinates": [143.35910492642253, 50.3154835410968]}}, {"type": "Feature", "properties": {"norad_id": 37132, "name": "COSMOS 2251 DEB", "group": "cosmos-2251-debris", "lat": -72.70482261122491, "lon": 155.99763838894856, "alt_km": 648.163601420044, "timestamp": "2025-12-18T07:01:54.987217+00:00", "meta": {"OBJECT_NAME": "COSMOS 2251 DEB", "OBJECT_ID": "1993-036BHE", "EPOCH": "2025-12-15T09:32:55.769280", "MEAN_MOTION": 14.77873409, "ECCENTRICITY": 0.00399597, "INCLINATION": 74.0031, "RA_OF_ASC_NODE": 228.8126, "ARG_OF_PERICENTER": 24.0962, "MEAN_ANOMALY": 336.207, "EPHEMERIS_TYPE": 0, "CLASSIFICATION_TYPE": "U", "NORAD_CAT_ID": 37132, "ELEMENT_SET_NO": 999, "REV_AT_EPOCH": 62455, "BSTAR": 0.00059917342, "MEAN_MOTION_DOT": 4.336e-05, "MEAN_MOTION_DDOT": 0}, "tle": {"line1": "1 37132U 93036BHE 25349.39786770  .00004336  00000+0  59917-3 0  9996", "line2": "2 37132  74.0031 228.8126 0039959  24.0962 336.2070 14.77873409624553"}}, "geometry": {"type": "Point", "coordinates": [155.99763838894856, -72.70482261122491]}}, {"type": "Feature", "properties": {"norad_id": 37270, "name": "COSMOS 2251 DEB", "group": "cosmos-2251-debris", "lat": -48.65768632038244, "lon": 165.94419390120422, "alt_km": 1114.7197277970072, "timestamp": "2025-12-18T07:01:54.987227+00:00", "meta": {"OBJECT_NAME": "COSMOS 2251 DEB", "OBJECT_ID": "1993-036BHJ", "EPOCH": "2025-12-12T22:45:06.098400", "MEAN_MOTION": 13.59808663, "ECCENTRICITY": 0.03985351, "INCLINATION": 73.9378, "RA_OF_ASC_NODE": 335.5481, "ARG_OF_PERICENTER": 347.3958, "MEAN_ANOMALY": 11.7404, "EPHEMERIS_TYPE": 0, "CLASSIFICATION_TYPE": "U", "NORAD_CAT_ID": 37270, "ELEMENT_SET_NO": 999, "REV_AT_EPOCH": 77072, "BSTAR": 0.0064936549, "MEAN_MOTION_DOT": 8.148e-05, "MEAN_MOTION_DDOT": 0}, "tle": {"line1": "1 37270U 93036BHJ 25346.94798725  .00008148  00000+0  64937-2 0  9992", "line2": "2 37270  73.9378 335.5481 0398535 347.3958  11.7404 13.59808663770728"}}, "geometry": {"type": "Point", "coordinates": [165.94419390120422, -48.65768632038244]}}, {"type": "Feature", "properties": {"norad_id": 37278, "name": "COSMOS 2251 DEB", "group": "cosmos-2251-debris", "lat": -65.58859551813146, "lon": -60.58508563394808, "alt_km": 976.5813851776857, "timestamp": "2025-12-18T07:01:54.987237+00:00", "meta": {"OBJECT_NAME": "COSMOS 2251 DEB", "OBJECT_ID": "1993-036BHS", "EPOCH": "2025-12-04T09:26:36.152736", "MEAN_MOTION": 14.15029915, "ECCENTRICITY": 0.029998, "INCLINATION": 73.7864, "RA_OF_ASC_NODE": 4.3592, "ARG_OF_PERICENTER": 188.2556, "MEAN_ANOMALY": 234.4903, "EPHEMERIS_TYPE": 0, "CLASSIFICATION_TYPE": "U", "NORAD_CAT_ID": 37278, "ELEMENT_SET_NO": 999, "REV_AT_EPOCH": 63711, "BSTAR": 0.0023061, "MEAN_MOTION_DOT": 6.884e-05, "MEAN_MOTION_DDOT": 0}, "tle": {"line1": "1 37278U 93036BHS 25338.39347399  .00006884  00000+0  23061-2 0  9995", "line2": "2 37278  73.7864   4.3592 0299980 188.2556 234.4903 14.15029915637119"}}, "geometry": {"type": "Point", "coordinates": [-60.58508563394808, -65.58859551813146]}}, {"type": "Feature", "properties": {"norad_id": 37280, "name": "COSMOS 2251 DEB", "group": "cosmos-2251-debris", "lat": -40.85941600440313, "lon": 32.80431953461856, "alt_km": 908.2460314339951, "timestamp": "2025-12-18T07:01:54.987246+00:00", "meta": {"OBJECT_NAME": "COSMOS 2251 DEB", "OBJECT_ID": "1993-036BHU", "EPOCH": "2025-12-14T22:02:27.434112", "MEAN_MOTION": 14.19330541, "ECCENTRICITY": 0.01308275, "INCLINATION": 74.0321, "RA_OF_ASC_NODE": 53.1735, "ARG_OF_PERICENTER": 181.3662, "MEAN_ANOMALY": 178.7145, "EPHEMERIS_TYPE": 0, "CLASSIFICATION_TYPE": "U", "NORAD_CAT_ID": 37280, "ELEMENT_SET_NO": 999, "REV_AT_EPOCH": 57354, "BSTAR": 0.00096264954, "MEAN_MOTION_DOT": 2.177e-05, "MEAN_MOTION_DDOT": 0}, "tle": {"line1": "1 37280U 93036BHU 25348.91837308  .00002177  00000+0  96265-3 0  9999", "line2": "2 37280  74.0321  53.1735 0130827 181.3662 178.7145 14.19330541573549"}}, "geometry": {"type": "Point", "coordinates": [32.80431953461856, -40.85941600440313]}}, {"type": "Feature", "properties": {"norad_id": 37284, "name": "COSMOS 2251 DEB", "group": "cosmos-2251-debris", "lat": -2.206680658464713, "lon": -32.46928516755965, "alt_km": 900.8162287350915, "timestamp": "2025-12-18T07:01:54.987256+00:00", "meta": {"OBJECT_NAME": "COSMOS 2251 DEB", "OBJECT_ID": "1993-036BHY", "EPOCH": "2025-12-10T18:04:20.469216", "MEAN_MOTION": 14.12686618, "ECCENTRICITY": 0.01605026, "INCLINATION": 74.0123, "RA_OF_ASC_NODE": 160.2425, "ARG_OF_PERICENTER": 312.4867, "MEAN_ANOMALY": 59.8736, "EPHEMERIS_TYPE": 0, "CLASSIFICATION_TYPE": "U", "NORAD_CAT_ID": 37284, "ELEMENT_SET_NO": 999, "REV_AT_EPOCH": 59147, "BSTAR": 0.001592138, "MEAN_MOTION_DOT": 3.31e-05, "MEAN_MOTION_DDOT": 0}, "tle": {"line1": "1 37284U 93036BHY 25344.75301469  .00003310  00000+0  15921-2 0  9994", "line2": "2 37284  74.0123 160.2425 0160502 312.4867  59.8736 14.12686618591475"}}, "geometry": {"type": "Point", "coordinates": [-32.46928516755965, -2.206680658464713]}}]}